[
    {
        "Altitude(m)": 611967.144808885,
        "Argument of Periapsis(deg)": 0.0,
        "Eccentricity": 0.0,
        "Inclination(deg)": 60.0,
        "Latitude(deg)": 59.14005813992135,
        "Longitude(deg)": -103.90786991507328,
        "Mean Anomaly(deg)": 98.18179999999998,
        "RAAN(deg)": 250.00000000000003,
        "Satellite Name": "Test1 1106",
        "Satellite Number": 1106,
        "Semi-Major Axis(m)": 6980739.136638005,
        "Time(s)": 0
    },
    {
        "Altitude(m)": 611934.3442991595,
        "Argument of Periapsis(deg)": 0.00010418945913296404,
        "Eccentricity": 0.0,
        "Inclination(deg)": 60.0,
        "Latitude(deg)": 58.98641949053322,
        "Longitude(deg)": -102.78462799806948,
        "Mean Anomaly(deg)": 98.80190614546184,
        "RAAN(deg)": 249.99957995086027,
        "Satellite Name": "Test1 1106",
        "Satellite Number": 1106,
        "Semi-Major Axis(m)": 6980739.136638005,
        "Time(s)": 10
    },
    {
        "Altitude(m)": 611899.2391592831,
        "Argument of Periapsis(deg)": 0.0002083789182659281,
        "Eccentricity": 0.0,
        "Inclination(deg)": 60.0,
        "Latitude(deg)": 58.822402778174705,
        "Longitude(deg)": -101.67205137944721,
        "Mean Anomaly(deg)": 99.42201229092365,
        "RAAN(deg)": 249.99915990172053,
        "Satellite Name": "Test1 1106",
        "Satellite Number": 1106,
        "Semi-Major Axis(m)": 6980739.136638005,
        "Time(s)": 20
    },
    {
        "Altitude(m)": 611861.8496237897,
        "Argument of Periapsis(deg)": 0.00031256837739889213,
        "Eccentricity": 0.0,
        "Inclination(deg)": 60.0,
        "Latitude(deg)": 58.64817105180428,
        "Longitude(deg)": -100.57065184621707,
        "Mean Anomaly(deg)": 100.0421184363855,
        "RAAN(deg)": 249.99873985258083,
        "Satellite Name": "Test1 1106",
        "Satellite Number": 1106,
        "Semi-Major Axis(m)": 6980739.136638005,
        "Time(s)": 30
    },
    {
        "Altitude(m)": 611822.1972530382,
        "Argument of Periapsis(deg)": 0.0004167578365318562,
        "Eccentricity": 0.0,
        "Inclination(deg)": 60.0,
        "Latitude(deg)": 58.46389380924378,
        "Longitude(deg)": -99.48090043712006,
        "Mean Anomaly(deg)": 100.6622245818473,
        "RAAN(deg)": 249.99831980344106,
        "Satellite Name": "Test1 1106",
        "Satellite Number": 1106,
        "Semi-Major Axis(m)": 6980739.136638005,
        "Time(s)": 40
    },
    {
        "Altitude(m)": 611780.3049230115,
        "Argument of Periapsis(deg)": 0.0005209472956648203,
        "Eccentricity": 0.0,
        "Inclination(deg)": 60.0,
        "Latitude(deg)": 58.26974628066857,
        "Longitude(deg)": -98.40322821896054,
        "Mean Anomaly(deg)": 101.28233072730914,
        "RAAN(deg)": 249.99789975430133,
        "Satellite Name": "Test1 1106",
        "Satellite Number": 1106,
        "Semi-Major Axis(m)": 6980739.136638005,
        "Time(s)": 50
    },
    {
        "Altitude(m)": 611736.1968145047,
        "Argument of Periapsis(deg)": 0.0006251367547977843,
        "Eccentricity": 0.0,
        "Inclination(deg)": 60.0,
        "Latitude(deg)": 58.065908718554454,
        "Longitude(deg)": -97.33802584006656,
        "Mean Anomaly(deg)": 101.90243687277095,
        "RAAN(deg)": 249.99747970516157,
        "Satellite Name": "Test1 1106",
        "Satellite Number": 1106,
        "Semi-Major Axis(m)": 6980739.136638005,
        "Time(s)": 60
    },
    {
        "Altitude(m)": 611689.8984016723,
        "Argument of Periapsis(deg)": 0.0007293262139307483,
        "Eccentricity": 0.0,
        "Inclination(deg)": 60.0,
        "Latitude(deg)": 57.85256569946431,
        "Longitude(deg)": -96.28564335351106,
        "Mean Anomaly(deg)": 102.52254301823282,
        "RAAN(deg)": 249.99705965602186,
        "Satellite Name": "Test1 1106",
        "Satellite Number": 1106,
        "Semi-Major Axis(m)": 6980739.136638005,
        "Time(s)": 70
    },
    {
        "Altitude(m)": 611641.4364399735,
        "Argument of Periapsis(deg)": 0.0008335156730637124,
        "Eccentricity": 0.0,
        "Inclination(deg)": 60.0,
        "Latitude(deg)": 57.629905442517405,
        "Longitude(deg)": -95.24639180058149,
        "Mean Anomaly(deg)": 103.1426491636946,
        "RAAN(deg)": 249.9966396068821,
        "Satellite Name": "Test1 1106",
        "Satellite Number": 1106,
        "Semi-Major Axis(m)": 6980739.136638005,
        "Time(s)": 80
    },
    {
        "Altitude(m)": 611590.8389534915,
        "Argument of Periapsis(deg)": 0.0009377051321966765,
        "Eccentricity": 0.0,
        "Inclination(deg)": 60.0,
        "Latitude(deg)": 57.39811914881043,
        "Longitude(deg)": -94.22054350482722,
        "Mean Anomaly(deg)": 103.76275530915647,
        "RAAN(deg)": 249.9962195577423,
        "Satellite Name": "Test1 1106",
        "Satellite Number": 1106,
        "Semi-Major Axis(m)": 6980739.136638005,
        "Time(s)": 90
    },
    {
        "Altitude(m)": 611538.1352216557,
        "Argument of Periapsis(deg)": 0.0010418945913296407,
        "Eccentricity": 0.0,
        "Inclination(deg)": 60.0,
        "Latitude(deg)": 57.15740036547813,
        "Longitude(deg)": -93.20833256466962,
        "Mean Anomaly(deg)": 104.38286145461831,
        "RAAN(deg)": 249.99579950860257,
        "Satellite Name": "Test1 1106",
        "Satellite Number": 1106,
        "Semi-Major Axis(m)": 6980739.136638005,
        "Time(s)": 100
    },
    {
        "Altitude(m)": 611483.3557653462,
        "Argument of Periapsis(deg)": 0.0011460840504626045,
        "Eccentricity": 0.0,
        "Inclination(deg)": 60.0,
        "Latitude(deg)": 56.90794437749307,
        "Longitude(deg)": -92.20995703213846,
        "Mean Anomaly(deg)": 105.00296760008013,
        "RAAN(deg)": 249.9953794594629,
        "Satellite Name": "Test1 1106",
        "Satellite Number": 1106,
        "Semi-Major Axis(m)": 6980739.136638005,
        "Time(s)": 110
    },
    {
        "Altitude(m)": 611426.5323324244,
        "Argument of Periapsis(deg)": 0.0012502735095955685,
        "Eccentricity": 0.0,
        "Inclination(deg)": 60.0,
        "Latitude(deg)": 56.6499476297281,
        "Longitude(deg)": -91.22557972676431,
        "Mean Anomaly(deg)": 105.62307374554199,
        "RAAN(deg)": 249.9949594103231,
        "Satellite Name": "Test1 1106",
        "Satellite Number": 1106,
        "Semi-Major Axis(m)": 6980739.136638005,
        "Time(s)": 120
    },
    {
        "Altitude(m)": 611367.6978826427,
        "Argument of Periapsis(deg)": 0.0013544629687285324,
        "Eccentricity": 0.0,
        "Inclination(deg)": 60.0,
        "Latitude(deg)": 56.38360718125086,
        "Longitude(deg)": -90.25532917276557,
        "Mean Anomaly(deg)": 106.24317989100376,
        "RAAN(deg)": 249.99453936118334,
        "Satellite Name": "Test1 1106",
        "Satellite Number": 1106,
        "Semi-Major Axis(m)": 6980739.136638005,
        "Time(s)": 130
    },
    {
        "Altitude(m)": 611306.886571986,
        "Argument of Periapsis(deg)": 0.0014586524278614966,
        "Eccentricity": 0.0,
        "Inclination(deg)": 60.0,
        "Latitude(deg)": 56.10912019329216,
        "Longitude(deg)": -89.29930214853557,
        "Mean Anomaly(deg)": 106.86328603646564,
        "RAAN(deg)": 249.9941193120436,
        "Satellite Name": "Test1 1106",
        "Satellite Number": 1106,
        "Semi-Major Axis(m)": 6980739.136638005,
        "Time(s)": 140
    },
    {
        "Altitude(m)": 611244.1337364444,
        "Argument of Periapsis(deg)": 0.0015628418869944607,
        "Eccentricity": 0.0,
        "Inclination(deg)": 60.0,
        "Latitude(deg)": 55.82668345183985,
        "Longitude(deg)": -88.35756480000052,
        "Mean Anomaly(deg)": 107.48339218192744,
        "RAAN(deg)": 249.99369926290387,
        "Satellite Name": "Test1 1106",
        "Satellite Number": 1106,
        "Semi-Major Axis(m)": 6980739.136638005,
        "Time(s)": 150
    },
    {
        "Altitude(m)": 611179.4758751807,
        "Argument of Periapsis(deg)": 0.0016670313461274247,
        "Eccentricity": 0.0,
        "Inclination(deg)": 60.0,
        "Latitude(deg)": 55.53649292535771,
        "Longitude(deg)": -87.43015380943008,
        "Mean Anomaly(deg)": 108.10349832738929,
        "RAAN(deg)": 249.99327921376414,
        "Satellite Name": "Test1 1106",
        "Satellite Number": 1106,
        "Semi-Major Axis(m)": 6980739.136638005,
        "Time(s)": 160
    },
    {
        "Altitude(m)": 611112.9506331626,
        "Argument of Periapsis(deg)": 0.0017712208052603888,
        "Eccentricity": 0.0,
        "Inclination(deg)": 60.0,
        "Latitude(deg)": 55.23874335772432,
        "Longitude(deg)": -86.51707911287345,
        "Mean Anomaly(deg)": 108.7236044728511,
        "RAAN(deg)": 249.99285916462438,
        "Satellite Name": "Test1 1106",
        "Satellite Number": 1106,
        "Semi-Major Axis(m)": 6980739.136638005,
        "Time(s)": 170
    },
    {
        "Altitude(m)": 611044.596783212,
        "Argument of Periapsis(deg)": 0.001875410264393353,
        "Eccentricity": 0.0,
        "Inclination(deg)": 60.0,
        "Latitude(deg)": 54.93362789612095,
        "Longitude(deg)": -85.61832512248806,
        "Mean Anomaly(deg)": 109.34371061831294,
        "RAAN(deg)": 249.99243911548464,
        "Satellite Name": "Test1 1106",
        "Satellite Number": 1106,
        "Semi-Major Axis(m)": 6980739.136638005,
        "Time(s)": 180
    },
    {
        "Altitude(m)": 610974.4542075332,
        "Argument of Periapsis(deg)": 0.0019795997235263173,
        "Eccentricity": 0.0,
        "Inclination(deg)": 60.0,
        "Latitude(deg)": 54.62133775328613,
        "Longitude(deg)": -84.73385195041857,
        "Mean Anomaly(deg)": 109.96381676377474,
        "RAAN(deg)": 249.9920190663449,
        "Satellite Name": "Test1 1106",
        "Satellite Number": 1106,
        "Semi-Major Axis(m)": 6980739.136638005,
        "Time(s)": 190
    }
]